{
    "links": {
        "self": "http://www.neowsapp.com/rest/v1/neo/3712536?api_key=iIulBulltgU6a56xZRHN4H3l9WmuAYTsLGpBGhQ2"
    },
    "id": "3712536",
    "neo_reference_id": "3712536",
    "name": "(2015 DC199)",
    "designation": "2015 DC199",
    "nasa_jpl_url": "http://ssd.jpl.nasa.gov/sbdb.cgi?sstr=3712536",
    "absolute_magnitude_h": 25.7,
    "estimated_diameter": {
        "kilometers": {
            "estimated_diameter_min": 0.0192555078,
            "estimated_diameter_max": 0.0430566244
        },
        "meters": {
            "estimated_diameter_min": 19.2555078188,
            "estimated_diameter_max": 43.0566244241
        },
        "miles": {
            "estimated_diameter_min": 0.0119648141,
            "estimated_diameter_max": 0.0267541378
        },
        "feet": {
            "estimated_diameter_min": 63.1742402722,
            "estimated_diameter_max": 141.2618956756
        }
    },
    "is_potentially_hazardous_asteroid": false,
    "close_approach_data": [
        {
            "close_approach_date": "1914-03-12",
            "close_approach_date_full": "1914-Mar-12 11:34",
            "epoch_date_close_approach": -1761135960000,
            "relative_velocity": {
                "kilometers_per_second": "11.5627829372",
                "kilometers_per_hour": "41626.0185738613",
                "miles_per_hour": "25864.7891521862"
            },
            "miss_distance": {
                "astronomical": "0.1610452734",
                "lunar": "62.6466113526",
                "kilometers": "24092029.874207658",
                "miles": "14970093.1913873604"
            },
            "orbiting_body": "Earth"
        },
        {
            "close_approach_date": "2015-02-21",
            "close_approach_date_full": "2015-Feb-21 00:30",
            "epoch_date_close_approach": 1424478600000,
            "relative_velocity": {
                "kilometers_per_second": "7.3611728986",
                "kilometers_per_hour": "26500.2224349017",
                "miles_per_hour": "16466.2076568421"
            },
            "miss_distance": {
                "astronomical": "0.030752003",
                "lunar": "11.962529167",
                "kilometers": "4600434.14703361",
                "miles": "2858577.224979418"
            },
            "orbiting_body": "Earth"
        },
        {
            "close_approach_date": "2093-03-22",
            "close_approach_date_full": "2093-Mar-22 17:43",
            "epoch_date_close_approach": 3888582180000,
            "relative_velocity": {
                "kilometers_per_second": "14.9870415738",
                "kilometers_per_hour": "53953.3496656973",
                "miles_per_hour": "33524.513296444"
            },
            "miss_distance": {
                "astronomical": "0.2839529754",
                "lunar": "110.4577074306",
                "kilometers": "42478760.300002398",
                "miles": "26395077.6944051724"
            },
            "orbiting_body": "Earth"
        },
        {
            "close_approach_date": "2099-12-15",
            "close_approach_date_full": "2099-Dec-15 13:05",
            "epoch_date_close_approach": 4101023100000,
            "relative_velocity": {
                "kilometers_per_second": "17.0252707418",
                "kilometers_per_hour": "61290.9746705696",
                "miles_per_hour": "38083.8281223881"
            },
            "miss_distance": {
                "astronomical": "0.3907020378",
                "lunar": "151.9830927042",
                "kilometers": "58448192.659539486",
                "miles": "36318022.8295414668"
            },
            "orbiting_body": "Earth"
        },
        {
            "close_approach_date": "2148-04-03",
            "close_approach_date_full": "2148-Apr-03 06:09",
            "epoch_date_close_approach": 5625180540000,
            "relative_velocity": {
                "kilometers_per_second": "19.9509509233",
                "kilometers_per_hour": "71823.4233238199",
                "miles_per_hour": "44628.2821202924"
            },
            "miss_distance": {
                "astronomical": "0.4577696254",
                "lunar": "178.0723842806",
                "kilometers": "68481360.910537898",
                "miles": "42552344.4913750724"
            },
            "orbiting_body": "Earth"
        }
    ],
    "orbital_data": {
        "orbit_id": "7",
        "orbit_determination_date": "2017-04-06 08:35:22",
        "first_observation_date": "2015-02-25",
        "last_observation_date": "2015-03-15",
        "data_arc_in_days": 18,
        "observations_used": 14,
        "orbit_uncertainty": "8",
        "minimum_orbit_intersection": ".0306454",
        "jupiter_tisserand_invariant": "4.023",
        "epoch_osculation": "2457080.5",
        "eccentricity": ".4286084306447541",
        "semi_major_axis": "1.741521836261941",
        "inclination": "7.903908430657215",
        "ascending_node_longitude": "159.6928999799796",
        "orbital_period": "839.4441623389367",
        "perihelion_distance": ".99509089508814",
        "perihelion_argument": "332.2997411828477",
        "aphelion_distance": "2.487952777435742",
        "perihelion_time": "2457057.560480530764",
        "mean_anomaly": "9.837732370328393",
        "mean_motion": ".4288552069942744",
        "equinox": "J2000",
        "orbit_class": {
            "orbit_class_type": "APO",
            "orbit_class_description": "Near-Earth asteroid orbits which cross the Earth’s orbit similar to that of 1862 Apollo",
            "orbit_class_range": "a (semi-major axis) > 1.0 AU; q (perihelion) < 1.017 AU"
        }
    },
    "is_sentry_object": false
}